ORBCOMM FM37            
1 33064U 08031E   25297.78621925  .00002867  00000+0  39969-3 0  9994
2 33064  48.4382  87.3024 0005755 216.7135 285.3143 14.80303536933248
ORBCOMM FM40            
1 33065U 08031F   25297.83037772  .00004034  00000+0  52054-3 0  9990
2 33065  48.4410  68.8983 0006956 231.2453 259.4195 14.82721893933395
VESSELSAT 1             
1 37840U 11058C   25297.62255755  .00000419  00000+0  83478-4 0  9996
2 37840  19.9631  30.6532 0013594 169.8017 190.2665 14.11382853724611
ORBCOMM FM109           
1 40086U 14040A   25297.74635920  .00000804  00000+0  20816-3 0  9999
2 40086  47.0017 124.3145 0002012 224.8134 135.2589 14.58408281599971
ORBCOMM FM107           
1 40087U 14040B   25297.76824352  .00000963  00000+0  24168-3 0  9991
2 40087  47.0035 125.1216 0001101 178.8669 181.2219 14.58484553600058
ORBCOMM FM106           
1 40088U 14040C   25297.33785616  .00001940  00000+0  35216-3 0  9996
2 40088  47.0597 298.8704 0017573 305.7482  54.1774 14.69822181602473
ORBCOMM FM111           
1 40089U 14040D   25297.78908126  .00004190  00000+0  48059-3 0  9998
2 40089  46.9986 129.1652 0028646  94.6101 265.8069 14.87217054609514
ORBCOMM FM104           
1 40090U 14040E   25297.62538414  .00000969  00000+0  25155-3 0  9994
2 40090  47.0037 160.9716 0015877  75.8176 284.4472 14.56876326599493
